{
  "type": "FeatureCollection",
  "features": [
    {
      "type": "Feature",
      "properties": {
        "norad_id": 42917,
        "name": "QZS-3 (QZSS/PRN 199)",
        "group": "gnss",
        "lat": 0.012709609643184785,
        "lon": -24.603988441318258,
        "alt_km": 35783.031976036415,
        "timestamp": "2025-12-23T07:45:09.648290+00:00",
        "meta_object_name": "QZS-3 (QZSS/PRN 199)",
        "meta_object_id": "2017-048A",
        "meta_epoch": "2025-12-22T18:54:13.952736",
        "meta_mean_motion": 1.00266767,
        "meta_eccentricity": 0.00018792,
        "meta_inclination": 0.0665,
        "meta_ra_of_asc_node": 181.9013,
        "meta_arg_of_pericenter": 98.2711,
        "meta_mean_anomaly": 221.9626,
        "meta_ephemeris_type": 0,
        "meta_classification_type": "U",
        "meta_norad_cat_id": 42917,
        "meta_element_set_no": 999,
        "meta_rev_at_epoch": 3049,
        "meta_bstar": 0,
        "meta_mean_motion_dot": -3.27e-06,
        "meta_mean_motion_ddot": 0,
        "tle_line1": "1 42917U 17048A   25356.78766149 -.00000327  00000+0  00000+0 0  9993",
        "tle_line2": "2 42917   0.0665 181.9013 0001879  98.2711 221.9626  1.00266767 30497"
      },
      "geometry": {
        "type": "Point",
        "coordinates": [
          -24.603988441318258,
          0.012709609643184785
        ]
      }
    },
    {
      "type": "Feature",
      "properties": {
        "norad_id": 42939,
        "name": "COSMOS 2522 (752)",
        "group": "gnss",
        "lat": 41.91922403414349,
        "lon": -8.036573944634409,
        "alt_km": 19125.508373315413,
        "timestamp": "2025-12-23T07:45:09.648301+00:00",
        "meta_object_name": "COSMOS 2522 (752)",
        "meta_object_id": "2017-055A",
        "meta_epoch": "2025-12-22T05:05:46.710816",
        "meta_mean_motion": 2.13102066,
        "meta_eccentricity": 0.00062992,
        "meta_inclination": 64.0765,
        "meta_ra_of_asc_node": 197.9063,
        "meta_arg_of_pericenter": 223.6863,
        "meta_mean_anomaly": 136.3303,
        "meta_ephemeris_type": 0,
        "meta_classification_type": "U",
        "meta_norad_cat_id": 42939,
        "meta_element_set_no": 999,
        "meta_rev_at_epoch": 6420,
        "meta_bstar": 0,
        "meta_mean_motion_dot": 9.5e-07,
        "meta_mean_motion_ddot": 0,
        "tle_line1": "1 42939U 17055A   25356.21234619  .00000095  00000+0  00000+0 0  9996",
        "tle_line2": "2 42939  64.0765 197.9063 0006299 223.6863 136.3303  2.13102066 64200"
      },
      "geometry": {
        "type": "Point",
        "coordinates": [
          -8.036573944634409,
          41.91922403414349
        ]
      }
    },
    {
      "type": "Feature",
      "properties": {
        "norad_id": 42965,
        "name": "QZS-4 (QZSS/PRN 195)",
        "group": "gnss",
        "lat": 4.396944342692993,
        "lon": -9.065143446212652,
        "alt_km": 35824.75338591952,
        "timestamp": "2025-12-23T07:45:09.648313+00:00",
        "meta_object_name": "QZS-4 (QZSS/PRN 195)",
        "meta_object_id": "2017-062A",
        "meta_epoch": "2025-12-20T12:23:32.377344",
        "meta_mean_motion": 1.00250818,
        "meta_eccentricity": 0.07514763,
        "meta_inclination": 40.2219,
        "meta_ra_of_asc_node": 345.7724,
        "meta_arg_of_pericenter": 271.7049,
        "meta_mean_anomaly": 153.5074,
        "meta_ephemeris_type": 0,
        "meta_classification_type": "U",
        "meta_norad_cat_id": 42965,
        "meta_element_set_no": 999,
        "meta_rev_at_epoch": 3001,
        "meta_bstar": 0,
        "meta_mean_motion_dot": -3.25e-06,
        "meta_mean_motion_ddot": 0,
        "tle_line1": "1 42965U 17062A   25354.51634696 -.00000325  00000+0  00000+0 0  9990",
        "tle_line2": "2 42965  40.2219 345.7724 0751476 271.7049 153.5074  1.00250818 30012"
      },
      "geometry": {
        "type": "Point",
        "coordinates": [
          -9.065143446212652,
          4.396944342692993
        ]
      }
    },
    {
      "type": "Feature",
      "properties": {
        "norad_id": 43001,
        "name": "BEIDOU-3 M1 (C19)",
        "group": "gnss",
        "lat": -23.48853513642215,
        "lon": -94.41539843353954,
        "alt_km": 21532.92453693627,
        "timestamp": "2025-12-23T07:45:09.648328+00:00",
        "meta_object_name": "BEIDOU-3 M1 (C19)",
        "meta_object_id": "2017-069A",
        "meta_epoch": "2025-12-21T09:37:16.890816",
        "meta_mean_motion": 1.86231333,
        "meta_eccentricity": 0.00096297,
        "meta_inclination": 56.5338,
        "meta_ra_of_asc_node": 68.9479,
        "meta_arg_of_pericenter": 302.2645,
        "meta_mean_anomaly": 57.6886,
        "meta_ephemeris_type": 0,
        "meta_classification_type": "U",
        "meta_norad_cat_id": 43001,
        "meta_element_set_no": 999,
        "meta_rev_at_epoch": 5529,
        "meta_bstar": 0,
        "meta_mean_motion_dot": -3.5e-07,
        "meta_mean_motion_ddot": 0,
        "tle_line1": "1 43001U 17069A   25355.40088994 -.00000035  00000+0  00000+0 0  9990",
        "tle_line2": "2 43001  56.5338  68.9479 0009629 302.2645  57.6886  1.86231333 55292"
      },
      "geometry": {
        "type": "Point",
        "coordinates": [
          -94.41539843353954,
          -23.48853513642215
        ]
      }
    },
    {
      "type": "Feature",
      "properties": {
        "norad_id": 43002,
        "name": "BEIDOU-3 M2 (C20)",
        "group": "gnss",
        "lat": -51.59876468890608,
        "lon": -54.615565531721344,
        "alt_km": 21529.79846211196,
        "timestamp": "2025-12-23T07:45:09.648345+00:00",
        "meta_object_name": "BEIDOU-3 M2 (C20)",
        "meta_object_id": "2017-069B",
        "meta_epoch": "2025-12-22T09:54:58.962816",
        "meta_mean_motion": 1.86231087,
        "meta_eccentricity": 0.00067293,
        "meta_inclination": 56.5339,
        "meta_ra_of_asc_node": 68.9503,
        "meta_arg_of_pericenter": 327.7398,
        "meta_mean_anomaly": 32.2697,
        "meta_ephemeris_type": 0,
        "meta_classification_type": "U",
        "meta_norad_cat_id": 43002,
        "meta_element_set_no": 999,
        "meta_rev_at_epoch": 5530,
        "meta_bstar": 0,
        "meta_mean_motion_dot": -2.8e-07,
        "meta_mean_motion_ddot": 0,
        "tle_line1": "1 43002U 17069B   25356.41318244 -.00000028  00000+0  00000+0 0  9999",
        "tle_line2": "2 43002  56.5339  68.9503 0006729 327.7398  32.2697  1.86231087 55304"
      },
      "geometry": {
        "type": "Point",
        "coordinates": [
          -54.615565531721344,
          -51.59876468890608
        ]
      }
    },
    {
      "type": "Feature",
      "properties": {
        "norad_id": 43055,
        "name": "GSAT0215 (GALILEO 19)",
        "group": "gnss",
        "lat": 5.743366437222781,
        "lon": 42.341497069956716,
        "alt_km": 23225.27526785789,
        "timestamp": "2025-12-23T07:45:09.648358+00:00",
        "meta_object_name": "GSAT0215 (GALILEO 19)",
        "meta_object_id": "2017-079A",
        "meta_epoch": "2025-12-21T06:45:20.639232",
        "meta_mean_motion": 1.70474038,
        "meta_eccentricity": 0.0001214,
        "meta_inclination": 55.1273,
        "meta_ra_of_asc_node": 226.4024,
        "meta_arg_of_pericenter": 349.3948,
        "meta_mean_anomaly": 10.7111,
        "meta_ephemeris_type": 0,
        "meta_classification_type": "U",
        "meta_norad_cat_id": 43055,
        "meta_element_set_no": 999,
        "meta_rev_at_epoch": 4995,
        "meta_bstar": 0,
        "meta_mean_motion_dot": 7.3e-07,
        "meta_mean_motion_ddot": 0,
        "tle_line1": "1 43055U 17079A   25355.28148888  .00000073  00000+0  00000+0 0  9996",
        "tle_line2": "2 43055  55.1273 226.4024 0001214 349.3948  10.7111  1.70474038 49952"
      },
      "geometry": {
        "type": "Point",
        "coordinates": [
          42.341497069956716,
          5.743366437222781
        ]
      }
    },
    {
      "type": "Feature",
      "properties": {
        "norad_id": 43056,
        "name": "GSAT0216 (GALILEO 20)",
        "group": "gnss",
        "lat": -4.770585085792982,
        "lon": -136.97311487304142,
        "alt_km": 23217.007098207505,
        "timestamp": "2025-12-23T07:45:09.648370+00:00",
        "meta_object_name": "GSAT0216 (GALILEO 20)",
        "meta_object_id": "2017-079B",
        "meta_epoch": "2025-12-22T03:49:27.700896",
        "meta_mean_motion": 1.70474103,
        "meta_eccentricity": 0.00023248,
        "meta_inclination": 55.1274,
        "meta_ra_of_asc_node": 226.3782,
        "meta_arg_of_pericenter": 325.6946,
        "meta_mean_anomaly": 34.3963,
        "meta_ephemeris_type": 0,
        "meta_classification_type": "U",
        "meta_norad_cat_id": 43056,
        "meta_element_set_no": 999,
        "meta_rev_at_epoch": 4998,
        "meta_bstar": 0,
        "meta_mean_motion_dot": 7.3e-07,
        "meta_mean_motion_ddot": 0,
        "tle_line1": "1 43056U 17079B   25356.15934839  .00000073  00000+0  00000+0 0  9993",
        "tle_line2": "2 43056  55.1274 226.3782 0002324 325.6946  34.3963  1.70474103 49985"
      },
      "geometry": {
        "type": "Point",
        "coordinates": [
          -136.97311487304142,
          -4.770585085792982
        ]
      }
    }
  ]
}